BEIDOU-3 M20-C42
1 44865U 19090B   23123.53208213  .00000049  00000+0  00000+0 0  9992
2 44865  55.6218 100.8366 0017716 288.7479 222.0061  1.86231763 22966
